{"type":"FeatureCollection","source":"First Landing Site/Exploration Zone Workshop for Human Missions to the Surface of Mars, Houston, 27-30 Oct 2015, LPI Contribution No. 1879 (abstract numbers). An EZ is ~100 km radius. Location: centre of the named IAU feature unless the abstract states coordinates; proposals may be offset from that centre.","radius_km":100,"features":[{"type":"Feature","geometry":{"type":"Point","coordinates":[-72.5387,-10.5178]},"properties":{"name":"Eastern Melas Chasma","abstracts":[1007],"location_basis":"IAU feature: Melas Chasma"}},{"type":"Feature","geometry":{"type":"Point","coordinates":[-34.019,-26.04]},"properties":{"name":"Holden Crater","abstracts":[1049],"location_basis":"IAU feature: Holden"}},{"type":"Feature","geometry":{"type":"Point","coordinates":[137.811,-5.3672]},"properties":{"name":"Gale Crater","abstracts":[1020,1022],"location_basis":"IAU feature: Gale"}},{"type":"Feature","geometry":{"type":"Point","coordinates":[-3.13999999999999,-0.04]},"properties":{"name":"Meridiani Planum","abstracts":[1030,1042,1057],"location_basis":"IAU feature: Meridiani Planum"}},{"type":"Feature","geometry":{"type":"Point","coordinates":[175.5244,-14.5308]},"properties":{"name":"Gusev Crater","abstracts":[1008,1046],"location_basis":"IAU feature: Gusev"}},{"type":"Feature","geometry":{"type":"Point","coordinates":[177.4663,-11.0642]},"properties":{"name":"Apollinaris Sulci","abstracts":[1043,1046],"location_basis":"IAU feature: Apollinaris Sulci"}},{"type":"Feature","geometry":{"type":"Point","coordinates":[153.7297,-1.0807]},"properties":{"name":"Zephyria Planum","abstracts":[1016],"location_basis":"IAU feature: Zephyria Planum"}},{"type":"Feature","geometry":{"type":"Point","coordinates":[126.7387,19.8793]},"properties":{"name":"Hebrus Valles","abstracts":[1012],"location_basis":"IAU feature: Hebrus Valles"}},{"type":"Feature","geometry":{"type":"Point","coordinates":[-46.4157,9.4627]},"properties":{"name":"Hypanis (Xanthe Terra)","abstracts":[1051],"location_basis":"IAU feature: Hypanis Valles"}},{"type":"Feature","geometry":{"type":"Point","coordinates":[77.6873,18.4082]},"properties":{"name":"Jezero-Syrtis-Isidis","abstracts":[1034],"location_basis":"IAU feature: Jezero"}},{"type":"Feature","geometry":{"type":"Point","coordinates":[76.6948,22.0182]},"properties":{"name":"Nili Fossae","abstracts":[1010],"location_basis":"IAU feature: Nili Fossae"}},{"type":"Feature","geometry":{"type":"Point","coordinates":[-22.3916,2.5233]},"properties":{"name":"Aram Chaos","abstracts":[1048],"location_basis":"IAU feature: Aram Chaos"}},{"type":"Feature","geometry":{"type":"Point","coordinates":[166.3738,11.2766]},"properties":{"name":"Cerberus","abstracts":[1017],"location_basis":"IAU feature: Cerberus Fossae"}},{"type":"Feature","geometry":{"type":"Point","coordinates":[-57.1568,-23.085]},"properties":{"name":"Southern Nectaris Fossae","abstracts":[1005],"location_basis":"IAU feature: Nectaris Fossae"}},{"type":"Feature","geometry":{"type":"Point","coordinates":[77.2969,-27.2473]},"properties":{"name":"Hadriacus Palus","abstracts":[1052],"location_basis":"IAU feature: Hadriacus Palus"}},{"type":"Feature","geometry":{"type":"Point","coordinates":[-16.9726,22.4304]},"properties":{"name":"Mawrth Vallis","abstracts":[1009],"location_basis":"IAU feature: Mawrth Vallis"}},{"type":"Feature","geometry":{"type":"Point","coordinates":[-22.367,21.8966]},"properties":{"name":"McLaughlin Crater","abstracts":[1025],"location_basis":"IAU feature: McLaughlin"}},{"type":"Feature","geometry":{"type":"Point","coordinates":[-9.37449999999995,2.7345]},"properties":{"name":"South of Firsoff Crater (Arabia Terra)","abstracts":[1026],"location_basis":"IAU feature: Firsoff"}},{"type":"Feature","geometry":{"type":"Point","coordinates":[-165.9821,-29.2933]},"properties":{"name":"Columbus Crater","abstracts":[1041],"location_basis":"IAU feature: Columbus"}},{"type":"Feature","geometry":{"type":"Point","coordinates":[55.5817,-13.8819]},"properties":{"name":"Huygens Crater","abstracts":[1032],"location_basis":"IAU feature: Huygens"}},{"type":"Feature","geometry":{"type":"Point","coordinates":[-101.1889,-6.3625]},"properties":{"name":"Noctis Landing","abstracts":[1050],"location_basis":"IAU feature: Noctis Labyrinthus"}},{"type":"Feature","geometry":{"type":"Point","coordinates":[23.9184,45.1095]},"properties":{"name":"Deuteronilus Mensae","abstracts":[1033,1044],"location_basis":"IAU feature: Deuteronilus Mensae"}},{"type":"Feature","geometry":{"type":"Point","coordinates":[104.0,-40.0]},"properties":{"name":"Eastern Rim of Hellas","abstracts":[1038],"location_basis":"abstract #1038: centred near 40S, 104E"}},{"type":"Feature","geometry":{"type":"Point","coordinates":[17.075,33.8981]},"properties":{"name":"Ismenius Cavus","abstracts":[1027],"location_basis":"IAU feature: Ismenius Cavus"}},{"type":"Feature","geometry":{"type":"Point","coordinates":[-36.3616,-35.6879]},"properties":{"name":"Hale Crater","abstracts":[1028],"location_basis":"IAU feature: Hale"}},{"type":"Feature","geometry":{"type":"Point","coordinates":[-158.0288,-40.502]},"properties":{"name":"Newton Crater","abstracts":[1015],"location_basis":"IAU feature: Newton"}},{"type":"Feature","geometry":{"type":"Point","coordinates":[48.8636,43.8694]},"properties":{"name":"Protonilus Mensae","abstracts":[1053],"location_basis":"IAU feature: Protonilus Mensae"}},{"type":"Feature","geometry":{"type":"Point","coordinates":[96.5536,-31.9201]},"properties":{"name":"Ausonia Cavus","abstracts":[1045],"location_basis":"IAU feature: Ausonia Cavus"}},{"type":"Feature","geometry":{"type":"Point","coordinates":[-62.8784,25.1357]},"properties":{"name":"Kasei Valles","abstracts":[1045],"location_basis":"IAU feature: Kasei Valles"}},{"type":"Feature","geometry":{"type":"Point","coordinates":[-48.222,22.697]},"properties":{"name":"Chryse Planitia (Viking 1 site)","abstracts":[1019],"location_basis":"Viking 1 landing site (abstract: EZ centred near VL-1)"}}]}