{"type":"FeatureCollection","source":"Wikipedia 'List of artificial objects on Mars' (coord templates, retrieved 2026-09-29); Perseverance and Curiosity from NASA MMGIS first waypoint. Longitudes east, -180..180.","features":[{"type":"Feature","geometry":{"type":"Point","coordinates":[47.0,-45.0]},"properties":{"mission":"Mars 2","agency":"USSR","year":1971,"status":"crashed"}},{"type":"Feature","geometry":{"type":"Point","coordinates":[-158.0,-45.0]},"properties":{"mission":"Mars 3","agency":"USSR","year":1971,"status":"landed"}},{"type":"Feature","geometry":{"type":"Point","coordinates":[-19.42,-23.9]},"properties":{"mission":"Mars 6","agency":"USSR","year":1974,"status":"crashed"}},{"type":"Feature","geometry":{"type":"Point","coordinates":[-48.222,22.697]},"properties":{"mission":"Viking 1","agency":"NASA","year":1976,"status":"landed"}},{"type":"Feature","geometry":{"type":"Point","coordinates":[134.01,48.269]},"properties":{"mission":"Viking 2","agency":"NASA","year":1976,"status":"landed"}},{"type":"Feature","geometry":{"type":"Point","coordinates":[-33.55,19.33]},"properties":{"mission":"Mars Pathfinder / Sojourner","agency":"NASA","year":1997,"status":"landed"}},{"type":"Feature","geometry":{"type":"Point","coordinates":[165.0,-76.0]},"properties":{"mission":"Mars Polar Lander","agency":"NASA","year":1999,"status":"crashed"}},{"type":"Feature","geometry":{"type":"Point","coordinates":[90.4295,11.5265]},"properties":{"mission":"Beagle 2","agency":"ESA/UK","year":2003,"status":"landed"}},{"type":"Feature","geometry":{"type":"Point","coordinates":[175.4785,-14.5718]},"properties":{"mission":"Spirit","agency":"NASA","year":2004,"status":"landed"}},{"type":"Feature","geometry":{"type":"Point","coordinates":[-5.5266,-1.9462]},"properties":{"mission":"Opportunity","agency":"NASA","year":2004,"status":"landed"}},{"type":"Feature","geometry":{"type":"Point","coordinates":[-125.7,68.22]},"properties":{"mission":"Phoenix","agency":"NASA","year":2008,"status":"landed"}},{"type":"Feature","geometry":{"type":"Point","coordinates":[137.441633,-4.589467]},"properties":{"mission":"Curiosity","agency":"NASA","year":2012,"status":"landed"}},{"type":"Feature","geometry":{"type":"Point","coordinates":[-6.21,-2.05]},"properties":{"mission":"Schiaparelli","agency":"ESA/Roscosmos","year":2016,"status":"crashed"}},{"type":"Feature","geometry":{"type":"Point","coordinates":[135.6234,4.5024]},"properties":{"mission":"InSight","agency":"NASA","year":2018,"status":"landed"}},{"type":"Feature","geometry":{"type":"Point","coordinates":[77.45088572,18.44462715]},"properties":{"mission":"Perseverance / Ingenuity","agency":"NASA","year":2021,"status":"landed"}},{"type":"Feature","geometry":{"type":"Point","coordinates":[109.9,25.1]},"properties":{"mission":"Zhurong","agency":"CNSA","year":2021,"status":"landed"}}]}